GOES 19                 
1 60133U 24119A   26073.55355538 -.00000249  00000+0  00000+0 0  9991
2 60133   0.0399 331.2250 0001104  70.9444 254.0878  1.00271909  6016
FENGYUN 3H              
1 65815U 25219A   26073.54635584  .00000079  00000+0  57545-4 0  9997
2 65815  98.6690  16.1953 0001187  59.8725 300.2569 14.19934077 23952
