[{"OBJECT_NAME":"GOES 19","OBJECT_ID":"2024-119A","EPOCH":"2026-03-14T13:17:07.184832","MEAN_MOTION":1.00271909,"ECCENTRICITY":0.00011049,"INCLINATION":0.0399,"RA_OF_ASC_NODE":331.225,"ARG_OF_PERICENTER":70.9444,"MEAN_ANOMALY":254.0878,"EPHEMERIS_TYPE":0,"CLASSIFICATION_TYPE":"U","NORAD_CAT_ID":60133,"ELEMENT_SET_NO":999,"REV_AT_EPOCH":601,"BSTAR":0,"MEAN_MOTION_DOT":-2.49e-6,"MEAN_MOTION_DDOT":0},{"OBJECT_NAME":"FENGYUN 3H","OBJECT_ID":"2025-219A","EPOCH":"2026-03-14T13:06:45.144576","MEAN_MOTION":14.19934077,"ECCENTRICITY":0.00011876,"INCLINATION":98.669,"RA_OF_ASC_NODE":16.1953,"ARG_OF_PERICENTER":59.8725,"MEAN_ANOMALY":300.2569,"EPHEMERIS_TYPE":0,"CLASSIFICATION_TYPE":"U","NORAD_CAT_ID":65815,"ELEMENT_SET_NO":999,"REV_AT_EPOCH":2395,"BSTAR":5.7544541e-5,"MEAN_MOTION_DOT":7.9e-7,"MEAN_MOTION_DDOT":0}]
